CCSDS_OMM_VERS = 2.0
CREATION_DATE  = 
ORIGINATOR     = 

OBJECT_NAME    = COSMOS 2058
OBJECT_ID      = 1990-010A
CENTER_NAME    = EARTH
REF_FRAME      = TEME
TIME_SYSTEM    = UTC
MEAN_ELEMENT_THEORY = SGP/SGP4

EPOCH          = 2026-03-31T05:32:33.228960
MEAN_MOTION    = 15.11525481
ECCENTRICITY   = .00075736
INCLINATION    = 82.4704
RA_OF_ASC_NODE = 26.2016
ARG_OF_PERICENTER = 256.3554
MEAN_ANOMALY   = 103.6833

EPHEMERIS_TYPE = 0
CLASSIFICATION_TYPE = U
NORAD_CAT_ID   = 20465
ELEMENT_SET_NO = 999
REV_AT_EPOCH   = 94549
BSTAR          = .3778849E-3
MEAN_MOTION_DOT = .6433E-4
MEAN_MOTION_DDOT = 0

CCSDS_OMM_VERS = 2.0
CREATION_DATE  = 
ORIGINATOR     = 

OBJECT_NAME    = SL-14 R/B
OBJECT_ID      = 1990-010B
CENTER_NAME    = EARTH
REF_FRAME      = TEME
TIME_SYSTEM    = UTC
MEAN_ELEMENT_THEORY = SGP/SGP4

EPOCH          = 2026-03-31T04:51:13.868640
MEAN_MOTION    = 14.83589804
ECCENTRICITY   = .00187221
INCLINATION    = 82.5000
RA_OF_ASC_NODE = 247.1756
ARG_OF_PERICENTER = 226.0634
MEAN_ANOMALY   = 133.9037

EPHEMERIS_TYPE = 0
CLASSIFICATION_TYPE = U
NORAD_CAT_ID   = 20466
ELEMENT_SET_NO = 999
REV_AT_EPOCH   = 93167
BSTAR          = .80165936E-4
MEAN_MOTION_DOT = .686E-5
MEAN_MOTION_DDOT = 0

CCSDS_OMM_VERS = 2.0
CREATION_DATE  = 
ORIGINATOR     = 

OBJECT_NAME    = SL-14 R/B
OBJECT_ID      = 1990-018B
CENTER_NAME    = EARTH
REF_FRAME      = TEME
TIME_SYSTEM    = UTC
MEAN_ELEMENT_THEORY = SGP/SGP4

EPOCH          = 2026-03-31T07:23:49.557408
MEAN_MOTION    = 14.82166868
ECCENTRICITY   = .00167428
INCLINATION    = 82.5239
RA_OF_ASC_NODE = 202.8876
ARG_OF_PERICENTER = 25.6435
MEAN_ANOMALY   = 334.5606

EPHEMERIS_TYPE = 0
CLASSIFICATION_TYPE = U
NORAD_CAT_ID   = 20511
ELEMENT_SET_NO = 999
REV_AT_EPOCH   = 92578
BSTAR          = .71882888E-4
MEAN_MOTION_DOT = .597E-5
MEAN_MOTION_DDOT = 0

CCSDS_OMM_VERS = 2.0
CREATION_DATE  = 
ORIGINATOR     = 

OBJECT_NAME    = HST
OBJECT_ID      = 1990-037B
CENTER_NAME    = EARTH
REF_FRAME      = TEME
TIME_SYSTEM    = UTC
MEAN_ELEMENT_THEORY = SGP/SGP4

EPOCH          = 2026-03-31T03:31:11.767872
MEAN_MOTION    = 15.29823594
ECCENTRICITY   = .00018902
INCLINATION    = 28.4719
RA_OF_ASC_NODE = 253.5904
ARG_OF_PERICENTER = 15.8116
MEAN_ANOMALY   = 344.2539

EPHEMERIS_TYPE = 0
CLASSIFICATION_TYPE = U
NORAD_CAT_ID   = 20580
ELEMENT_SET_NO = 999
REV_AT_EPOCH   = 77660
BSTAR          = .3387767E-3
MEAN_MOTION_DOT = .1031E-3
MEAN_MOTION_DDOT = 0

CCSDS_OMM_VERS = 2.0
CREATION_DATE  = 
ORIGINATOR     = 

OBJECT_NAME    = SL-16 R/B
OBJECT_ID      = 1990-046B
CENTER_NAME    = EARTH
REF_FRAME      = TEME
TIME_SYSTEM    = UTC
MEAN_ELEMENT_THEORY = SGP/SGP4

EPOCH          = 2026-03-30T21:42:49.040928
MEAN_MOTION    = 14.15017553
ECCENTRICITY   = .0016409
INCLINATION    = 70.9980
RA_OF_ASC_NODE = 253.3538
ARG_OF_PERICENTER = 271.8844
MEAN_ANOMALY   = 88.0400

EPHEMERIS_TYPE = 0
CLASSIFICATION_TYPE = U
NORAD_CAT_ID   = 20625
ELEMENT_SET_NO = 999
REV_AT_EPOCH   = 85139
BSTAR          = .11922E-3
MEAN_MOTION_DOT = .183E-5
MEAN_MOTION_DDOT = 0

CCSDS_OMM_VERS = 2.0
CREATION_DATE  = 
ORIGINATOR     = 

OBJECT_NAME    = COSMOS 2084
OBJECT_ID      = 1990-055A
CENTER_NAME    = EARTH
REF_FRAME      = TEME
TIME_SYSTEM    = UTC
MEAN_ELEMENT_THEORY = SGP/SGP4

EPOCH          = 2026-03-30T20:10:58.016928
MEAN_MOTION    = 15.05772419
ECCENTRICITY   = .00136858
INCLINATION    = 62.7893
RA_OF_ASC_NODE = 263.4301
ARG_OF_PERICENTER = 196.6588
MEAN_ANOMALY   = 163.4065

EPHEMERIS_TYPE = 0
CLASSIFICATION_TYPE = U
NORAD_CAT_ID   = 20663
ELEMENT_SET_NO = 999
REV_AT_EPOCH   = 93950
BSTAR          = .30027153E-3
MEAN_MOTION_DOT = .418E-4
MEAN_MOTION_DDOT = 0

CCSDS_OMM_VERS = 2.0
CREATION_DATE  = 
ORIGINATOR     = 

OBJECT_NAME    = SL-6 R/B(2)
OBJECT_ID      = 1990-055D
CENTER_NAME    = EARTH
REF_FRAME      = TEME
TIME_SYSTEM    = UTC
MEAN_ELEMENT_THEORY = SGP/SGP4

EPOCH          = 2026-03-31T06:02:19.241376
MEAN_MOTION    = 15.03700098
ECCENTRICITY   = .0028336
INCLINATION    = 62.7836
RA_OF_ASC_NODE = 180.5202
ARG_OF_PERICENTER = 351.9211
MEAN_ANOMALY   = 8.1428

EPHEMERIS_TYPE = 0
CLASSIFICATION_TYPE = U
NORAD_CAT_ID   = 20666
ELEMENT_SET_NO = 999
REV_AT_EPOCH   = 94143
BSTAR          = .21491707E-3
MEAN_MOTION_DOT = .2783E-4
MEAN_MOTION_DDOT = 0

CCSDS_OMM_VERS = 2.0
CREATION_DATE  = 
ORIGINATOR     = 

OBJECT_NAME    = SL-8 R/B
OBJECT_ID      = 1990-078B
CENTER_NAME    = EARTH
REF_FRAME      = TEME
TIME_SYSTEM    = UTC
MEAN_ELEMENT_THEORY = SGP/SGP4

EPOCH          = 2026-03-31T03:22:39.506592
MEAN_MOTION    = 14.89701482
ECCENTRICITY   = .03581264
INCLINATION    = 82.9028
RA_OF_ASC_NODE = 232.0063
ARG_OF_PERICENTER = 301.6339
MEAN_ANOMALY   = 55.0397

EPHEMERIS_TYPE = 0
CLASSIFICATION_TYPE = U
NORAD_CAT_ID   = 20775
ELEMENT_SET_NO = 999
REV_AT_EPOCH   = 81249
BSTAR          = .45690402E-3
MEAN_MOTION_DOT = .15419E-3
MEAN_MOTION_DDOT = 0

CCSDS_OMM_VERS = 2.0
CREATION_DATE  = 
ORIGINATOR     = 

OBJECT_NAME    = SL-8 R/B
OBJECT_ID      = 1991-006B
CENTER_NAME    = EARTH
REF_FRAME      = TEME
TIME_SYSTEM    = UTC
MEAN_ELEMENT_THEORY = SGP/SGP4

EPOCH          = 2026-03-31T04:42:05.452416
MEAN_MOTION    = 13.77497744
ECCENTRICITY   = .00216906
INCLINATION    = 82.9441
RA_OF_ASC_NODE = 154.0567
ARG_OF_PERICENTER = 338.3737
MEAN_ANOMALY   = 75.3636

EPHEMERIS_TYPE = 0
CLASSIFICATION_TYPE = U
NORAD_CAT_ID   = 21088
ELEMENT_SET_NO = 999
REV_AT_EPOCH   = 76703
BSTAR          = .11539176E-3
MEAN_MOTION_DOT = .13E-5
MEAN_MOTION_DDOT = 0

CCSDS_OMM_VERS = 2.0
CREATION_DATE  = 
ORIGINATOR     = 

OBJECT_NAME    = OKEAN-3
OBJECT_ID      = 1991-039A
CENTER_NAME    = EARTH
REF_FRAME      = TEME
TIME_SYSTEM    = UTC
MEAN_ELEMENT_THEORY = SGP/SGP4

EPOCH          = 2026-03-31T02:09:04.781088
MEAN_MOTION    = 15.04929646
ECCENTRICITY   = .00124371
INCLINATION    = 82.5158
RA_OF_ASC_NODE = 316.1083
ARG_OF_PERICENTER = 257.8124
MEAN_ANOMALY   = 102.1710

EPHEMERIS_TYPE = 0
CLASSIFICATION_TYPE = U
NORAD_CAT_ID   = 21397
ELEMENT_SET_NO = 999
REV_AT_EPOCH   = 86825
BSTAR          = .25540119E-3
MEAN_MOTION_DOT = .3649E-4
MEAN_MOTION_DDOT = 0

CCSDS_OMM_VERS = 2.0
CREATION_DATE  = 
ORIGINATOR     = 

OBJECT_NAME    = COSMOS 2151
OBJECT_ID      = 1991-042A
CENTER_NAME    = EARTH
REF_FRAME      = TEME
TIME_SYSTEM    = UTC
MEAN_ELEMENT_THEORY = SGP/SGP4

EPOCH          = 2026-03-31T05:28:19.259616
MEAN_MOTION    = 15.00200284
ECCENTRICITY   = .00120977
INCLINATION    = 82.4948
RA_OF_ASC_NODE = 62.8931
ARG_OF_PERICENTER = 355.4974
MEAN_ANOMALY   = 4.6139

EPHEMERIS_TYPE = 0
CLASSIFICATION_TYPE = U
NORAD_CAT_ID   = 21422
ELEMENT_SET_NO = 999
REV_AT_EPOCH   = 86642
BSTAR          = .21811951E-3
MEAN_MOTION_DOT = .2755E-4
MEAN_MOTION_DDOT = 0

CCSDS_OMM_VERS = 2.0
CREATION_DATE  = 
ORIGINATOR     = 

OBJECT_NAME    = SL-14 R/B
OBJECT_ID      = 1991-042B
CENTER_NAME    = EARTH
REF_FRAME      = TEME
TIME_SYSTEM    = UTC
MEAN_ELEMENT_THEORY = SGP/SGP4

EPOCH          = 2026-03-31T07:09:35.878752
MEAN_MOTION    = 14.81851955
ECCENTRICITY   = .0017422
INCLINATION    = 82.4957
RA_OF_ASC_NODE = 199.9240
ARG_OF_PERICENTER = 165.4964
MEAN_ANOMALY   = 194.6754

EPHEMERIS_TYPE = 0
CLASSIFICATION_TYPE = U
NORAD_CAT_ID   = 21423
ELEMENT_SET_NO = 999
REV_AT_EPOCH   = 85627
BSTAR          = .75380654E-4
MEAN_MOTION_DOT = .62E-5
MEAN_MOTION_DDOT = 0

